[{"OBJECT_NAME":"STARLINK-34725","OBJECT_ID":"2025-152B","EPOCH":"2026-03-09T14:37:42.633408","MEAN_MOTION":15.05656146,"ECCENTRICITY":0.0002655,"INCLINATION":97.6021,"RA_OF_ASC_NODE":285.4073,"ARG_OF_PERICENTER":81.3772,"MEAN_ANOMALY":278.7755,"EPHEMERIS_TYPE":0,"CLASSIFICATION_TYPE":"U","NORAD_CAT_ID":64843,"ELEMENT_SET_NO":999,"REV_AT_EPOCH":3540,"BSTAR":0.00057169,"MEAN_MOTION_DOT":8.199e-5,"MEAN_MOTION_DDOT":0},{"OBJECT_NAME":"CZ-6A DEB","OBJECT_ID":"2022-151AEC","EPOCH":"2026-03-09T16:07:43.414464","MEAN_MOTION":15.01082395,"ECCENTRICITY":0.0040922,"INCLINATION":98.632,"RA_OF_ASC_NODE":144.2747,"ARG_OF_PERICENTER":190.1613,"MEAN_ANOMALY":169.8786,"EPHEMERIS_TYPE":0,"CLASSIFICATION_TYPE":"U","NORAD_CAT_ID":56604,"ELEMENT_SET_NO":999,"REV_AT_EPOCH":16341,"BSTAR":0.005850488,"MEAN_MOTION_DOT":0.00076879,"MEAN_MOTION_DDOT":0}]
